NORAD_CAT_ID,OBJECT_NAME,OBJECT_TYPE,EPOCH,MEAN_MOTION,ECCENTRICITY,INCLINATION,RA_OF_ASC_NODE,ARG_OF_PERICENTER,MEAN_ANOMALY,BSTAR,MEAN_MOTION_DOT,MEAN_MOTION_DDOT,TLE_LINE0,TLE_LINE1,TLE_LINE2,SEMIMAJOR_AXIS,PERIOD,APOGEE,PERIGEE,DECAYED
49769.0,STARLINK-3208,PAYLOAD,2023-05-02 10:35:02,15.08842519,0.0001115,53.2147,138.0055,72.9023,287.2091,0.00018194,2.609e-05,0.0,0 STARLINK-3208,1 49769U 21115AX  23122.44100603  .00002609  00000-0  18194-3 0  9996,2 49769  53.2147 138.0055 0001115  72.9023 287.2091 15.08842519 79448,6917.873,95.437,540.509,538.966,0.0
49769.0,STARLINK-3208,PAYLOAD,2023-05-03 10:25:49,15.08849915,0.0001064,53.2147,133.5441,74.338,285.7729,0.00026371,3.913e-05,0.0,0 STARLINK-3208,1 49769U 21115AX  23123.43460138  .00003913  00000-0  26371-3 0  9993,2 49769  53.2147 133.5441 0001064  74.3380 285.7729 15.08849915 78483,6917.85,95.437,540.451,538.979,0.0
49769.0,STARLINK-3208,PAYLOAD,2023-05-04 05:30:27,15.08841821,0.0001146,53.215,129.9753,76.6633,283.4487,2.3725e-05,9e-07,0.0,0 STARLINK-3208,1 49769U 21115AX  23124.22948329  .00000090  00000-0  23725-4 0  9998,2 49769  53.2150 129.9753 0001146  76.6633 283.4487 15.08841821 79710,6917.875,95.437,540.533,538.947,0.0
49769.0,STARLINK-3208,PAYLOAD,2023-05-04 10:16:36,15.08844002,0.0001094,53.2143,129.0819,78.6423,281.4691,4.1974e-05,3.8e-06,0.0,0 STARLINK-3208,1 49769U 21115AX  23124.42820136  .00000380  00000-0  41974-4 0  9993,2 49769  53.2143 129.0819 0001094  78.6423 281.4691 15.08844002 78636,6917.868,95.437,540.49,538.976,0.0
49769.0,STARLINK-3208,PAYLOAD,2023-05-05 06:56:37,15.08844913,0.0001019,53.2155,125.218,74.391,285.7195,1.3296e-05,-7.6e-07,0.0,0 STARLINK-3208,1 49769U 21115AX  23125.28932092 -.00000076  00000-0  13296-4 0  9992,2 49769  53.2155 125.2180 0001019  74.3910 285.7195 15.08844913 79873,6917.865,95.437,540.435,539.025,0.0
49769.0,STARLINK-3208,PAYLOAD,2023-05-05 16:28:56,15.08841623,0.0001059,53.2155,123.4336,74.9309,285.1801,-4.4138e-05,-9.9e-06,0.0,0 STARLINK-3208,1 49769U 21115AX  23125.68676360 -.00000990  00000-0 -44138-4 0  9994,2 49769  53.2155 123.4336 0001059  74.9309 285.1801 15.08841623 78825,6917.875,95.437,540.473,539.008,0.0
49769.0,STARLINK-3208,PAYLOAD,2023-05-06 00:25:52,15.08835738,0.0001068,53.2154,121.9468,80.3748,279.7365,3.5801e-05,2.82e-06,0.0,0 STARLINK-3208,1 49769U 21115AX  23126.01796669  .00000282  00000-0  35801-4 0  9996,2 49769  53.2154 121.9468 0001068  80.3748 279.7365 15.08835738 79983,6917.893,95.438,540.497,539.02,0.0
49769.0,STARLINK-3208,PAYLOAD,2023-05-06 06:47:24,15.08838708,0.0001076,53.2155,120.7576,80.8529,279.2584,5.8298e-05,6.4e-06,0.0,0 STARLINK-3208,1 49769U 21115AX  23126.28292542  .00000640  00000-0  58298-4 0  9999,2 49769  53.2155 120.7576 0001076  80.8529 279.2584 15.08838708 78912,6917.884,95.438,540.494,539.005,0.0
49769.0,STARLINK-3208,PAYLOAD,2023-05-07 06:38:11,15.08845062,0.0001071,53.2158,116.2971,83.4707,276.6407,0.00010321,1.355e-05,0.0,0 STARLINK-3208,1 49769U 21115AX  23127.27652130  .00001355  00000-0  10321-3 0  9990,2 49769  53.2158 116.2971 0001071  83.4707 276.6407 15.08845062 80173,6917.865,95.437,540.471,538.989,0.0
49769.0,STARLINK-3208,PAYLOAD,2023-05-07 16:10:30,15.08839693,0.0001066,53.2159,114.5131,85.378,274.7333,6.4591e-05,7.4e-06,0.0,0 STARLINK-3208,1 49769U 21115AX  23127.67396568  .00000740  00000-0  64591-4 0  9990,2 49769  53.2159 114.5131 0001066  85.3780 274.7333 15.08839693 80236,6917.881,95.438,540.484,539.009,0.0
49769.0,STARLINK-3208,PAYLOAD,2023-05-08 04:53:36,15.08833074,0.000113,53.2163,112.1344,86.2089,273.9032,2.7943e-05,1.57e-06,0.0,0 STARLINK-3208,1 49769U 21115AX  23128.20389318  .00000157  00000-0  27943-4 0  9997,2 49769  53.2163 112.1344 0001130  86.2089 273.9032 15.08833074 80318,6917.902,95.438,540.548,538.985,0.0
49769.0,STARLINK-3208,PAYLOAD,2023-05-08 16:01:18,15.08836489,0.0001188,53.2163,110.0528,83.9631,276.1496,4.1406e-05,3.71e-06,0.0,0 STARLINK-3208,1 49769U 21115AX  23128.66757166  .00000371  00000-0  41406-4 0  9995,2 49769  53.2163 110.0528 0001188  83.9631 276.1496 15.08836489 79274,6917.891,95.438,540.578,538.934,0.0
49769.0,STARLINK-3208,PAYLOAD,2023-05-09 04:44:23,15.08842406,0.0001237,53.2159,107.6736,83.5704,276.5429,3.8711e-05,3.28e-06,0.0,0 STARLINK-3208,1 49769U 21115AX  23129.19748856  .00000328  00000-0  38711-4 0  9997,2 49769  53.2159 107.6736 0001237  83.5704 276.5429 15.08842406 80463,6917.873,95.437,540.594,538.882,0.0
49769.0,STARLINK-3208,PAYLOAD,2023-05-09 11:05:55,15.08847969,0.0001306,53.2164,106.4838,84.3794,275.7347,8.4532e-05,1.058e-05,0.0,0 STARLINK-3208,1 49769U 21115AX  23129.46244335  .00001058  00000-0  84532-4 0  9993,2 49769  53.2164 106.4838 0001306  84.3794 275.7347 15.08847969 79393,6917.856,95.437,540.625,538.818,0.0
49769.0,STARLINK-3208,PAYLOAD,2023-05-10 04:35:09,15.08839677,0.0001195,53.2159,103.2117,92.3195,267.7934,0.00013786,1.907e-05,0.0,0 STARLINK-3208,1 49769U 21115AX  23130.19108792  .00001907  00000-0  13786-3 0  9996,2 49769  53.2159 103.2117 0001195  92.3195 267.7934 15.08839677 79505,6917.881,95.438,540.573,538.92,0.0
49769.0,STARLINK-3208,PAYLOAD,2023-05-10 15:42:51,15.08843078,0.0001072,53.2157,101.1329,79.4095,280.7018,9.7509e-05,1.265e-05,0.0,0 STARLINK-3208,1 49769U 21115AX  23130.65476673  .00001265  00000-0  97509-4 0  9996,2 49769  53.2157 101.1329 0001072  79.4095 280.7018 15.08843078 80683,6917.871,95.437,540.478,538.994,0.0
49769.0,STARLINK-3208,PAYLOAD,2023-05-11 04:25:57,15.08843094,0.0001197,53.2173,98.7513,95.2466,264.8663,6.0122e-05,6.69e-06,0.0,0 STARLINK-3208,1 49769U 21115AX  23131.18468756  .00000669  00000-0  60122-4 0  9996,2 49769  53.2173  98.7513 0001197  95.2466 264.8663 15.08843094 79655,6917.871,95.437,540.564,538.908,0.0
49769.0,STARLINK-3208,PAYLOAD,2023-05-12 04:16:44,15.08839374,0.0001081,53.2169,94.2895,104.1765,255.9348,8.6094e-07,-2.74e-06,0.0,0 STARLINK-3208,1 49769U 21115AX  23132.17829135 -.00000274  00000-0  86094-6 0  9999,2 49769  53.2169  94.2895 0001081 104.1765 255.9348 15.08839374 80916,6917.882,95.438,540.495,538.999,0.0
49769.0,STARLINK-3208,PAYLOAD,2023-05-13 04:07:31,15.08840391,0.0001029,53.2164,89.8326,105.7412,254.3694,6.7664e-05,7.89e-06,0.0,0 STARLINK-3208,1 49769U 21115AX  23133.17189106  .00000789  00000-0  67664-4 0  9997,2 49769  53.2164  89.8326 0001029 105.7412 254.3694 15.08840391 79958,6917.879,95.438,540.456,539.032,0.0
49769.0,STARLINK-3208,PAYLOAD,2023-05-14 02:22:56,15.08831331,0.0001068,53.2161,85.6712,113.6149,246.4956,4.439e-05,4.19e-06,0.0,0 STARLINK-3208,1 49769U 21115AX  23134.09926068  .00000419  00000-0  44390-4 0  9996,2 49769  53.2161  85.6712 0001068 113.6149 246.4956 15.08831331 81204,6917.907,95.438,540.511,539.033,0.0
49769.0,STARLINK-3208,PAYLOAD,2023-05-14 19:52:10,15.08790103,0.0001326,53.2168,82.3992,109.4911,250.6224,0.00067959,0.0001053,0.0,0 STARLINK-3208,1 49769U 21115AX  23134.82789860  .00010530  00000-0  67959-3 0  9994,2 49769  53.2168  82.3992 0001326 109.4911 250.6224 15.08790103 80207,6918.033,95.441,540.815,538.981,0.0
49769.0,STARLINK-3208,PAYLOAD,2023-05-15 00:38:19,15.08845246,9.29e-05,53.2171,81.5071,103.1142,256.9954,-1.0285e-05,-4.51e-06,0.0,0 STARLINK-3208,1 49769U 21115AX  23135.02661691 -.00000451  00000-0 -10285-4 0  9992,2 49769  53.2171  81.5071 0000929 103.1142 256.9954 15.08845246 81349,6917.864,95.437,540.372,539.087,0.0
49769.0,STARLINK-3208,PAYLOAD,2023-05-15 06:59:51,15.08849737,9.72e-05,53.2165,80.3155,92.6582,267.4521,7.606e-05,9.23e-06,0.0,0 STARLINK-3208,1 49769U 21115AX  23135.29157093  .00000923  00000-0  76060-4 0  9992,2 49769  53.2165  80.3155 0000972  92.6582 267.4521 15.08849737 80277,6917.851,95.437,540.388,539.043,0.0
49769.0,STARLINK-3208,PAYLOAD,2023-05-15 13:21:24,15.08842835,0.0001035,53.2166,79.1253,97.7194,262.3916,2.1723e-05,5.8e-07,0.0,0 STARLINK-3208,1 49769U 21115AX  23135.55653578  .00000058  00000-0  21723-4 0  9995,2 49769  53.2166  79.1253 0001035  97.7194 262.3916 15.08842835 80318,6917.872,95.437,540.453,539.021,0.0
49769.0,STARLINK-3208,PAYLOAD,2023-05-16 03:39:53,15.08837568,0.0001157,53.2173,76.4491,92.3824,267.73,7.5973e-05,9.21e-06,0.0,0 STARLINK-3208,1 49769U 21115AX  23136.15270054  .00000921  00000-0  75973-4 0  9991,2 49769  53.2173  76.4491 0001157  92.3824 267.7300 15.08837568 81512,6917.888,95.438,540.553,538.952,0.0
49769.0,STARLINK-3208,PAYLOAD,2023-05-16 19:33:44,15.08840471,0.0001331,53.2177,73.4751,103.8569,256.2572,8.8367e-06,-1.47e-06,0.0,0 STARLINK-3208,1 49769U 21115AX  23136.81510047 -.00000147  00000-0  88367-5 0  9996,2 49769  53.2177  73.4751 0001331 103.8569 256.2572 15.08840471 80509,6917.879,95.438,540.665,538.823,0.0
49769.0,STARLINK-3208,PAYLOAD,2023-05-17 03:30:39,15.08849116,0.0001143,53.2175,71.9891,97.9177,262.1945,5.0372e-05,5.14e-06,0.0,0 STARLINK-3208,1 49769U 21115AX  23137.14629263  .00000514  00000-0  50372-4 0  9995,2 49769  53.2175  71.9891 0001143  97.9177 262.1945 15.08849116 81667,6917.853,95.437,540.508,538.927,0.0
49769.0,STARLINK-3208,PAYLOAD,2023-05-18 01:46:04,15.0883664,0.0001124,53.2168,67.8276,97.563,262.549,-9.7838e-06,-4.43e-06,0.0,0 STARLINK-3208,1 49769U 21115AX  23138.07366272 -.00000443  00000-0 -97838-5 0  9998,2 49769  53.2168  67.8276 0001124  97.5630 262.5490 15.08836640 81802,6917.891,95.438,540.533,538.978,0.0
49769.0,STARLINK-3208,PAYLOAD,2023-05-18 04:56:50,15.08839645,0.0001152,53.2169,67.232,101.9724,258.1397,3.3664e-05,2.48e-06,0.0,0 STARLINK-3208,1 49769U 21115AX  23138.20613926  .00000248  00000-0  33664-4 0  9991,2 49769  53.2169  67.2320 0001152 101.9724 258.1397 15.08839645 80716,6917.881,95.438,540.543,538.95,0.0
49769.0,STARLINK-3208,PAYLOAD,2023-05-19 04:47:37,15.0884511,0.0001139,53.2176,62.7704,93.4644,266.6478,2.2615e-05,7.2e-07,0.0,0 STARLINK-3208,1 49769U 21115AX  23139.19973678  .00000072  00000-0  22615-4 0  9992,2 49769  53.2176  62.7704 0001139  93.4644 266.6478 15.08845110 81978,6917.865,95.437,540.518,538.942,0.0
